[{"OBJECT_NAME":"SL-8 R/B","OBJECT_ID":"1988-053B","EPOCH":"2026-03-14T12:47:15.468288","MEAN_MOTION":14.38919116,"ECCENTRICITY":0.00214981,"INCLINATION":74.0454,"RA_OF_ASC_NODE":103.5385,"ARG_OF_PERICENTER":282.1836,"MEAN_ANOMALY":188.5763,"EPHEMERIS_TYPE":0,"CLASSIFICATION_TYPE":"U","NORAD_CAT_ID":19257,"ELEMENT_SET_NO":999,"REV_AT_EPOCH":97729,"BSTAR":0.00010991072,"MEAN_MOTION_DOT":3.13e-6,"MEAN_MOTION_DDOT":0},{"OBJECT_NAME":"COSMOS 1975","OBJECT_ID":"1988-093A","EPOCH":"2026-03-14T13:41:33.425664","MEAN_MOTION":15.28144906,"ECCENTRICITY":0.00125809,"INCLINATION":82.5181,"RA_OF_ASC_NODE":112.7853,"ARG_OF_PERICENTER":147.0855,"MEAN_ANOMALY":213.1171,"EPHEMERIS_TYPE":0,"CLASSIFICATION_TYPE":"U","NORAD_CAT_ID":19573,"ELEMENT_SET_NO":999,"REV_AT_EPOCH":2015,"BSTAR":0.00031404691,"MEAN_MOTION_DOT":8.667e-5,"MEAN_MOTION_DDOT":0},{"OBJECT_NAME":"SL-14 R/B","OBJECT_ID":"1988-093B","EPOCH":"2026-03-14T09:17:17.110176","MEAN_MOTION":14.8566307,"ECCENTRICITY":0.00214246,"INCLINATION":82.5313,"RA_OF_ASC_NODE":37.6341,"ARG_OF_PERICENTER":26.6669,"MEAN_ANOMALY":88.5712,"EPHEMERIS_TYPE":0,"CLASSIFICATION_TYPE":"U","NORAD_CAT_ID":19574,"ELEMENT_SET_NO":999,"REV_AT_EPOCH":171,"BSTAR":7.6761204e-5,"MEAN_MOTION_DOT":6.92e-6,"MEAN_MOTION_DDOT":0},{"OBJECT_NAME":"SL-16 R/B","OBJECT_ID":"1988-102B","EPOCH":"2026-03-14T13:36:13.972896","MEAN_MOTION":14.16155125,"ECCENTRICITY":0.0014259,"INCLINATION":70.9996,"RA_OF_ASC_NODE":141.2356,"ARG_OF_PERICENTER":353.8991,"MEAN_ANOMALY":6.1956,"EPHEMERIS_TYPE":0,"CLASSIFICATION_TYPE":"U","NORAD_CAT_ID":19650,"ELEMENT_SET_NO":999,"REV_AT_EPOCH":92758,"BSTAR":0.00012110571,"MEAN_MOTION_DOT":1.92e-6,"MEAN_MOTION_DDOT":0},{"OBJECT_NAME":"INTERCOSMOS 24","OBJECT_ID":"1989-080A","EPOCH":"2026-03-14T13:38:23.829504","MEAN_MOTION":12.59566177,"ECCENTRICITY":0.11866801,"INCLINATION":82.6019,"RA_OF_ASC_NODE":101.2265,"ARG_OF_PERICENTER":281.4854,"MEAN_ANOMALY":65.5562,"EPHEMERIS_TYPE":0,"CLASSIFICATION_TYPE":"U","NORAD_CAT_ID":20261,"ELEMENT_SET_NO":999,"REV_AT_EPOCH":66741,"BSTAR":0.00024026491,"MEAN_MOTION_DOT":8.07e-6,"MEAN_MOTION_DDOT":0},{"OBJECT_NAME":"SL-14 R/B","OBJECT_ID":"1989-080C","EPOCH":"2026-03-14T14:19:47.478720","MEAN_MOTION":12.50500254,"ECCENTRICITY":0.12306965,"INCLINATION":82.5972,"RA_OF_ASC_NODE":170.0372,"ARG_OF_PERICENTER":173.5371,"MEAN_ANOMALY":188.3411,"EPHEMERIS_TYPE":0,"CLASSIFICATION_TYPE":"U","NORAD_CAT_ID":20262,"ELEMENT_SET_NO":999,"REV_AT_EPOCH":66076,"BSTAR":0.00018412089,"MEAN_MOTION_DOT":6.3e-6,"MEAN_MOTION_DDOT":0},{"OBJECT_NAME":"DELTA 1 R/B","OBJECT_ID":"1989-089B","EPOCH":"2026-03-14T14:05:25.398528","MEAN_MOTION":14.50667585,"ECCENTRICITY":0.00706497,"INCLINATION":97.0702,"RA_OF_ASC_NODE":280.2468,"ARG_OF_PERICENTER":106.7878,"MEAN_ANOMALY":254.1086,"EPHEMERIS_TYPE":0,"CLASSIFICATION_TYPE":"U","NORAD_CAT_ID":20323,"ELEMENT_SET_NO":999,"REV_AT_EPOCH":89644,"BSTAR":0.0001110636,"MEAN_MOTION_DOT":4.16e-6,"MEAN_MOTION_DDOT":0},{"OBJECT_NAME":"ARIANE 40 R/B","OBJECT_ID":"1990-005H","EPOCH":"2026-03-14T14:36:06.756192","MEAN_MOTION":14.39874248,"ECCENTRICITY":0.00101511,"INCLINATION":98.3073,"RA_OF_ASC_NODE":134.1231,"ARG_OF_PERICENTER":183.4201,"MEAN_ANOMALY":176.692,"EPHEMERIS_TYPE":0,"CLASSIFICATION_TYPE":"U","NORAD_CAT_ID":20443,"ELEMENT_SET_NO":999,"REV_AT_EPOCH":89351,"BSTAR":0.00011507702,"MEAN_MOTION_DOT":3.19e-6,"MEAN_MOTION_DDOT":0},{"OBJECT_NAME":"DELTA 2 R/B(1)","OBJECT_ID":"1990-008B","EPOCH":"2026-03-14T12:09:21.657888","MEAN_MOTION":15.5665081,"ECCENTRICITY":0.00837701,"INCLINATION":35.6034,"RA_OF_ASC_NODE":143.2251,"ARG_OF_PERICENTER":303.1324,"MEAN_ANOMALY":56.1395,"EPHEMERIS_TYPE":0,"CLASSIFICATION_TYPE":"U","NORAD_CAT_ID":20453,"ELEMENT_SET_NO":999,"REV_AT_EPOCH":92688,"BSTAR":0.00097543598,"MEAN_MOTION_DOT":0.00085344,"MEAN_MOTION_DDOT":0},{"OBJECT_NAME":"COSMOS 2058","OBJECT_ID":"1990-010A","EPOCH":"2026-03-14T09:57:46.390464","MEAN_MOTION":15.11367677,"ECCENTRICITY":0.00086581,"INCLINATION":82.4666,"RA_OF_ASC_NODE":42.7712,"ARG_OF_PERICENTER":328.92,"MEAN_ANOMALY":31.1516,"EPHEMERIS_TYPE":0,"CLASSIFICATION_TYPE":"U","NORAD_CAT_ID":20465,"ELEMENT_SET_NO":999,"REV_AT_EPOCH":94295,"BSTAR":0.0002779448,"MEAN_MOTION_DOT":4.719e-5,"MEAN_MOTION_DDOT":0},{"OBJECT_NAME":"SL-14 R/B","OBJECT_ID":"1990-010B","EPOCH":"2026-03-14T14:39:06.402528","MEAN_MOTION":14.83573891,"ECCENTRICITY":0.00183549,"INCLINATION":82.4987,"RA_OF_ASC_NODE":262.7649,"ARG_OF_PERICENTER":284.8906,"MEAN_ANOMALY":75.0276,"EPHEMERIS_TYPE":0,"CLASSIFICATION_TYPE":"U","NORAD_CAT_ID":20466,"ELEMENT_SET_NO":999,"REV_AT_EPOCH":92921,"BSTAR":6.235374e-5,"MEAN_MOTION_DOT":5.38e-6,"MEAN_MOTION_DDOT":0},{"OBJECT_NAME":"SL-14 R/B","OBJECT_ID":"1990-018B","EPOCH":"2026-03-14T11:57:10.701792","MEAN_MOTION":14.82150757,"ECCENTRICITY":0.00176058,"INCLINATION":82.5211,"RA_OF_ASC_NODE":218.5951,"ARG_OF_PERICENTER":77.4954,"MEAN_ANOMALY":282.8228,"EPHEMERIS_TYPE":0,"CLASSIFICATION_TYPE":"U","NORAD_CAT_ID":20511,"ELEMENT_SET_NO":999,"REV_AT_EPOCH":92329,"BSTAR":7.0167909e-5,"MEAN_MOTION_DOT":5.84e-6,"MEAN_MOTION_DDOT":0},{"OBJECT_NAME":"HST","OBJECT_ID":"1990-037B","EPOCH":"2026-03-14T12:14:35.091168","MEAN_MOTION":15.29568851,"ECCENTRICITY":0.0001767,"INCLINATION":28.4725,"RA_OF_ASC_NODE":7.1142,"ARG_OF_PERICENTER":174.4342,"MEAN_ANOMALY":185.6273,"EPHEMERIS_TYPE":0,"CLASSIFICATION_TYPE":"U","NORAD_CAT_ID":20580,"ELEMENT_SET_NO":999,"REV_AT_EPOCH":77405,"BSTAR":0.00033489905,"MEAN_MOTION_DOT":0.00010115,"MEAN_MOTION_DDOT":0},{"OBJECT_NAME":"SL-16 R/B","OBJECT_ID":"1990-046B","EPOCH":"2026-03-14T13:47:53.864736","MEAN_MOTION":14.15011248,"ECCENTRICITY":0.00161869,"INCLINATION":70.9977,"RA_OF_ASC_NODE":287.6543,"ARG_OF_PERICENTER":293.113,"MEAN_ANOMALY":66.8286,"EPHEMERIS_TYPE":0,"CLASSIFICATION_TYPE":"U","NORAD_CAT_ID":20625,"ELEMENT_SET_NO":999,"REV_AT_EPOCH":84908,"BSTAR":-9.258078e-6,"MEAN_MOTION_DOT":-6.6e-7,"MEAN_MOTION_DDOT":0},{"OBJECT_NAME":"COSMOS 2084","OBJECT_ID":"1990-055A","EPOCH":"2026-03-14T00:55:57.352800","MEAN_MOTION":15.05678754,"ECCENTRICITY":0.00164032,"INCLINATION":62.7915,"RA_OF_ASC_NODE":320.7451,"ARG_OF_PERICENTER":191.1191,"MEAN_ANOMALY":168.955,"EPHEMERIS_TYPE":0,"CLASSIFICATION_TYPE":"U","NORAD_CAT_ID":20663,"ELEMENT_SET_NO":999,"REV_AT_EPOCH":93697,"BSTAR":0.00019797579,"MEAN_MOTION_DOT":2.68e-5,"MEAN_MOTION_DDOT":0},{"OBJECT_NAME":"SL-6 R/B(2)","OBJECT_ID":"1990-055D","EPOCH":"2026-03-14T15:01:25.613760","MEAN_MOTION":15.03622367,"ECCENTRICITY":0.0025587,"INCLINATION":62.7822,"RA_OF_ASC_NODE":237.0631,"ARG_OF_PERICENTER":348.2392,"MEAN_ANOMALY":11.8106,"EPHEMERIS_TYPE":0,"CLASSIFICATION_TYPE":"U","NORAD_CAT_ID":20666,"ELEMENT_SET_NO":999,"REV_AT_EPOCH":93893,"BSTAR":0.00020944525,"MEAN_MOTION_DOT":2.697e-5,"MEAN_MOTION_DDOT":0},{"OBJECT_NAME":"SL-8 R/B","OBJECT_ID":"1990-078B","EPOCH":"2026-03-14T13:08:51.578016","MEAN_MOTION":14.89236154,"ECCENTRICITY":0.03611869,"INCLINATION":82.8997,"RA_OF_ASC_NODE":246.9403,"ARG_OF_PERICENTER":357.6587,"MEAN_ANOMALY":2.292,"EPHEMERIS_TYPE":0,"CLASSIFICATION_TYPE":"U","NORAD_CAT_ID":20775,"ELEMENT_SET_NO":999,"REV_AT_EPOCH":81002,"BSTAR":0.00062971002,"MEAN_MOTION_DOT":0.00021352,"MEAN_MOTION_DDOT":0}]
